ION SCV-014             
1 62630U 25009X   26068.71776957  .00001812  00000+0  13229-3 0  9995
2 62630  97.4923 144.8636 0006450 112.6479 247.5430 15.04884649 63025
STARLINK-34703          
1 65387U 25191J   26068.64258904  .00004923  00000+0  34514-3 0  9994
2 65387  97.6023 301.5004 0002511  76.2496 283.9010 15.05650979 30265
